CCSDS_OMM_VERS = 2.0
CREATION_DATE  = 
ORIGINATOR     = 

OBJECT_NAME    = UNKNOWN
OBJECT_ID      = 
CENTER_NAME    = EARTH
REF_FRAME      = TEME
TIME_SYSTEM    = UTC
MEAN_ELEMENT_THEORY = SGP/SGP4

EPOCH          = 2026-02-03T20:31:52.407552
MEAN_MOTION    = 8.87557227
ECCENTRICITY   = .293177
INCLINATION    = 63.4356
RA_OF_ASC_NODE = 348.6834
ARG_OF_PERICENTER = 319.6496
MEAN_ANOMALY   = 21.9504

EPHEMERIS_TYPE = 0
CLASSIFICATION_TYPE = U
NORAD_CAT_ID   = 89132
ELEMENT_SET_NO = 999
REV_AT_EPOCH   = 32982
BSTAR          = .13142E-1
MEAN_MOTION_DOT = .1022E-3
MEAN_MOTION_DDOT = 0

CCSDS_OMM_VERS = 2.0
CREATION_DATE  = 
ORIGINATOR     = 

OBJECT_NAME    = UNKNOWN
OBJECT_ID      = 
CENTER_NAME    = EARTH
REF_FRAME      = TEME
TIME_SYSTEM    = UTC
MEAN_ELEMENT_THEORY = SGP/SGP4

EPOCH          = 2026-02-07T06:14:04.546176
MEAN_MOTION    = 14.63771662
ECCENTRICITY   = .0090638
INCLINATION    = 98.2515
RA_OF_ASC_NODE = 332.0141
ARG_OF_PERICENTER = 238.1812
MEAN_ANOMALY   = 121.0541

EPHEMERIS_TYPE = 0
CLASSIFICATION_TYPE = U
NORAD_CAT_ID   = 89146
ELEMENT_SET_NO = 999
REV_AT_EPOCH   = 63714
BSTAR          = .9514E-3
MEAN_MOTION_DOT = .5214E-4
MEAN_MOTION_DDOT = 0

CCSDS_OMM_VERS = 2.0
CREATION_DATE  = 
ORIGINATOR     = 

OBJECT_NAME    = UNKNOWN
OBJECT_ID      = 
CENTER_NAME    = EARTH
REF_FRAME      = TEME
TIME_SYSTEM    = UTC
MEAN_ELEMENT_THEORY = SGP/SGP4

EPOCH          = 2026-02-07T00:35:45.958272
MEAN_MOTION    = 15.56490110
ECCENTRICITY   = .0023818
INCLINATION    = 97.6495
RA_OF_ASC_NODE = 61.9190
ARG_OF_PERICENTER = 210.0072
MEAN_ANOMALY   = 149.9819

EPHEMERIS_TYPE = 0
CLASSIFICATION_TYPE = U
NORAD_CAT_ID   = 89161
ELEMENT_SET_NO = 999
REV_AT_EPOCH   = 55728
BSTAR          = .33657E-2
MEAN_MOTION_DOT = .248171E-2
MEAN_MOTION_DDOT = 0

CCSDS_OMM_VERS = 2.0
CREATION_DATE  = 
ORIGINATOR     = 

OBJECT_NAME    = UNKNOWN
OBJECT_ID      = 
CENTER_NAME    = EARTH
REF_FRAME      = TEME
TIME_SYSTEM    = UTC
MEAN_ELEMENT_THEORY = SGP/SGP4

EPOCH          = 2026-02-05T02:15:02.181600
MEAN_MOTION    = 14.48517370
ECCENTRICITY   = .0285709
INCLINATION    = 82.0648
RA_OF_ASC_NODE = 170.8730
ARG_OF_PERICENTER = 113.8688
MEAN_ANOMALY   = 249.2727

EPHEMERIS_TYPE = 0
CLASSIFICATION_TYPE = U
NORAD_CAT_ID   = 89172
ELEMENT_SET_NO = 999
REV_AT_EPOCH   = 60975
BSTAR          = .32831E-2
MEAN_MOTION_DOT = .20822E-3
MEAN_MOTION_DDOT = 0

CCSDS_OMM_VERS = 2.0
CREATION_DATE  = 
ORIGINATOR     = 

OBJECT_NAME    = UNKNOWN
OBJECT_ID      = 
CENTER_NAME    = EARTH
REF_FRAME      = TEME
TIME_SYSTEM    = UTC
MEAN_ELEMENT_THEORY = SGP/SGP4

EPOCH          = 2026-01-20T20:19:31.958688
MEAN_MOTION    = 13.73733405
ECCENTRICITY   = .0033216
INCLINATION    = 82.9182
RA_OF_ASC_NODE = 240.1233
ARG_OF_PERICENTER = 35.5386
MEAN_ANOMALY   = 324.7972

EPHEMERIS_TYPE = 0
CLASSIFICATION_TYPE = U
NORAD_CAT_ID   = 89177
ELEMENT_SET_NO = 999
REV_AT_EPOCH   = 6819
BSTAR          = .11791E-3
MEAN_MOTION_DOT = .126E-5
MEAN_MOTION_DDOT = 0

CCSDS_OMM_VERS = 2.0
CREATION_DATE  = 
ORIGINATOR     = 

OBJECT_NAME    = UNKNOWN
OBJECT_ID      = 
CENTER_NAME    = EARTH
REF_FRAME      = TEME
TIME_SYSTEM    = UTC
MEAN_ELEMENT_THEORY = SGP/SGP4

EPOCH          = 2026-02-05T17:25:27.479136
MEAN_MOTION    = 13.81663243
ECCENTRICITY   = .013126
INCLINATION    = 99.2190
RA_OF_ASC_NODE = 311.5512
ARG_OF_PERICENTER = 10.6073
MEAN_ANOMALY   = 349.7803

EPHEMERIS_TYPE = 0
CLASSIFICATION_TYPE = U
NORAD_CAT_ID   = 89183
ELEMENT_SET_NO = 999
REV_AT_EPOCH   = 61456
BSTAR          = .8288E-3
MEAN_MOTION_DOT = .902E-5
MEAN_MOTION_DDOT = 0

CCSDS_OMM_VERS = 2.0
CREATION_DATE  = 
ORIGINATOR     = 

OBJECT_NAME    = UNKNOWN
OBJECT_ID      = 
CENTER_NAME    = EARTH
REF_FRAME      = TEME
TIME_SYSTEM    = UTC
MEAN_ELEMENT_THEORY = SGP/SGP4

EPOCH          = 2026-02-07T02:24:56.307744
MEAN_MOTION    = 14.84608466
ECCENTRICITY   = .0010053
INCLINATION    = 98.3876
RA_OF_ASC_NODE = 270.5721
ARG_OF_PERICENTER = 321.1056
MEAN_ANOMALY   = 38.9433

EPHEMERIS_TYPE = 0
CLASSIFICATION_TYPE = U
NORAD_CAT_ID   = 89184
ELEMENT_SET_NO = 999
REV_AT_EPOCH   = 50052
BSTAR          = .42423E-2
MEAN_MOTION_DOT = .35989E-3
MEAN_MOTION_DDOT = 0

CCSDS_OMM_VERS = 2.0
CREATION_DATE  = 
ORIGINATOR     = 

OBJECT_NAME    = UNKNOWN
OBJECT_ID      = 
CENTER_NAME    = EARTH
REF_FRAME      = TEME
TIME_SYSTEM    = UTC
MEAN_ELEMENT_THEORY = SGP/SGP4

EPOCH          = 2026-02-01T14:30:55.336896
MEAN_MOTION    = 13.91661691
ECCENTRICITY   = .0227738
INCLINATION    = 98.7765
RA_OF_ASC_NODE = 268.0725
ARG_OF_PERICENTER = 347.1112
MEAN_ANOMALY   = 12.4287

EPHEMERIS_TYPE = 0
CLASSIFICATION_TYPE = U
NORAD_CAT_ID   = 89213
ELEMENT_SET_NO = 999
REV_AT_EPOCH   = 45974
BSTAR          = .41907E-3
MEAN_MOTION_DOT = .615E-5
MEAN_MOTION_DDOT = 0

CCSDS_OMM_VERS = 2.0
CREATION_DATE  = 
ORIGINATOR     = 

OBJECT_NAME    = UNKNOWN
OBJECT_ID      = 
CENTER_NAME    = EARTH
REF_FRAME      = TEME
TIME_SYSTEM    = UTC
MEAN_ELEMENT_THEORY = SGP/SGP4

EPOCH          = 2026-02-07T02:44:43.199232
MEAN_MOTION    = 9.26108553
ECCENTRICITY   = .2828721
INCLINATION    = 62.4748
RA_OF_ASC_NODE = 289.6614
ARG_OF_PERICENTER = 105.8750
MEAN_ANOMALY   = 286.8802

EPHEMERIS_TYPE = 0
CLASSIFICATION_TYPE = U
NORAD_CAT_ID   = 89251
ELEMENT_SET_NO = 999
REV_AT_EPOCH   = 37840
BSTAR          = .90945E-2
MEAN_MOTION_DOT = .15863E-3
MEAN_MOTION_DDOT = 0

CCSDS_OMM_VERS = 2.0
CREATION_DATE  = 
ORIGINATOR     = 

OBJECT_NAME    = UNKNOWN
OBJECT_ID      = 
CENTER_NAME    = EARTH
REF_FRAME      = TEME
TIME_SYSTEM    = UTC
MEAN_ELEMENT_THEORY = SGP/SGP4

EPOCH          = 2026-01-30T16:52:29.332992
MEAN_MOTION    = 14.43240828
ECCENTRICITY   = .0013268
INCLINATION    = 98.1574
RA_OF_ASC_NODE = 28.0262
ARG_OF_PERICENTER = 16.1159
MEAN_ANOMALY   = 344.0451

EPHEMERIS_TYPE = 0
CLASSIFICATION_TYPE = U
NORAD_CAT_ID   = 89261
ELEMENT_SET_NO = 999
REV_AT_EPOCH   = 54087
BSTAR          = .4026E-3
MEAN_MOTION_DOT = .1315E-4
MEAN_MOTION_DDOT = 0

CCSDS_OMM_VERS = 2.0
CREATION_DATE  = 
ORIGINATOR     = 

OBJECT_NAME    = UNKNOWN
OBJECT_ID      = 
CENTER_NAME    = EARTH
REF_FRAME      = TEME
TIME_SYSTEM    = UTC
MEAN_ELEMENT_THEORY = SGP/SGP4

EPOCH          = 2026-01-23T10:03:28.098144
MEAN_MOTION    = 9.06672246
ECCENTRICITY   = .2876157
INCLINATION    = 84.3296
RA_OF_ASC_NODE = 92.8600
ARG_OF_PERICENTER = 291.7160
MEAN_ANOMALY   = 59.5526

EPHEMERIS_TYPE = 0
CLASSIFICATION_TYPE = U
NORAD_CAT_ID   = 89304
ELEMENT_SET_NO = 999
REV_AT_EPOCH   = 44217
BSTAR          = .62545E-1
MEAN_MOTION_DOT = .69887E-3
MEAN_MOTION_DDOT = 0

CCSDS_OMM_VERS = 2.0
CREATION_DATE  = 
ORIGINATOR     = 

OBJECT_NAME    = UNKNOWN
OBJECT_ID      = 
CENTER_NAME    = EARTH
REF_FRAME      = TEME
TIME_SYSTEM    = UTC
MEAN_ELEMENT_THEORY = SGP/SGP4

EPOCH          = 2026-02-06T08:06:39.396672
MEAN_MOTION    = 12.96267704
ECCENTRICITY   = .0030981
INCLINATION    = 90.2479
RA_OF_ASC_NODE = 8.5891
ARG_OF_PERICENTER = 116.7554
MEAN_ANOMALY   = 243.6741

EPHEMERIS_TYPE = 0
CLASSIFICATION_TYPE = U
NORAD_CAT_ID   = 89349
ELEMENT_SET_NO = 999
REV_AT_EPOCH   = 48595
BSTAR          = .14775E-3
MEAN_MOTION_DOT = .5E-6
MEAN_MOTION_DDOT = 0

