UNKNOWN                 
1 89132U          26034.85546768  .00010220  00000+0  13142-1 0  9993
2 89132  63.4356 348.6834 2931770 319.6496  21.9504  8.87557227329821
UNKNOWN                 
1 89146U          26038.25977484  .00005214  00000+0  95140-3 0  9996
2 89146  98.2515 332.0141 0090638 238.1812 121.0541 14.63771662637143
UNKNOWN                 
1 89161U          26038.02483748  .00248171  00000+0  33657-2 0  9998
2 89161  97.6495  61.9190 0023818 210.0072 149.9819 15.56490110557287
UNKNOWN                 
1 89172U          26036.09377525  .00020822  00000+0  32831-2 0  9994
2 89172  82.0648 170.8730 0285709 113.8688 249.2727 14.48517370609759
UNKNOWN                 
1 89177U          26020.84689767  .00000126  00000+0  11791-3 0  9997
2 89177  82.9182 240.1233 0033216  35.5386 324.7972 13.73733405 68198
UNKNOWN                 
1 89183U          26036.72601249  .00000902  00000+0  82880-3 0  9996
2 89183  99.2190 311.5512 0131260  10.6073 349.7803 13.81663243614562
UNKNOWN                 
1 89184U          26038.10065171  .00035989  00000+0  42423-2 0  9990
2 89184  98.3876 270.5721 0010053 321.1056  38.9433 14.84608466500523
UNKNOWN                 
1 89213U          26032.60480714  .00000615  00000+0  41907-3 0  9991
2 89213  98.7765 268.0725 0227738 347.1112  12.4287 13.91661691459741
UNKNOWN                 
1 89251U          26038.11438888  .00015863  00000+0  90945-2 0  9996
2 89251  62.4748 289.6614 2828721 105.8750 286.8802  9.26108553378405
UNKNOWN                 
1 89261U          26030.70311728  .00001315  00000+0  40260-3 0  9990
2 89261  98.1574  28.0262 0013268  16.1159 344.0451 14.43240828540876
UNKNOWN                 
1 89304U          26023.41907521  .00069887  00000+0  62545-1 0  9996
2 89304  84.3296  92.8600 2876157 291.7160  59.5526  9.06672246442177
UNKNOWN                 
1 89349U          26037.33795598  .00000050  00000+0  14775-3 0  9991
2 89349  90.2479   8.5891 0030981 116.7554 243.6741 12.96267704485959
